BEIDOU-2 IGSO-1 (C06)   
1 36828U 10036A   26168.91794174 -.00000086  00000+0  00000+0 0  9995
2 36828  54.3019 162.9525 0059238 225.3267 315.9903  1.00271928 58109
BEIDOU-2 G4 (C04)       
1 37210U 10057A   26168.85727076 -.00000120  00000+0  00000+0 0  9993
2 37210   3.6487  68.9385 0005308 196.6557 109.1248  1.00270667 57294
BEIDOU-2 IGSO-2 (C07)   
1 37256U 10068A   26166.85415660 -.00000214  00000+0  00000+0 0  9990
2 37256  47.5513 271.8488 0055883 212.6776 194.9519  1.00282881 56782
BEIDOU-2 IGSO-3 (C08)   
1 37384U 11013A   26168.63859422 -.00000188  00000+0  00000+0 0  9999
2 37384  62.4080  40.1465 0034560 184.2780  19.0427  1.00267211 55660
BEIDOU-2 IGSO-4 (C09)   
1 37763U 11038A   26167.68545095  .00000019  00000+0  00000+0 0  9991
2 37763  54.6000 165.6770 0159519 231.4431 207.9860  1.00285273 54642
BEIDOU-2 IGSO-5 (C10)   
1 37948U 11073A   26168.70024432 -.00000182  00000+0  00000+0 0  9998
2 37948  47.6768 271.5389 0113960 221.7300 116.5044  1.00272773 53133
BEIDOU-2 G5 (C05)       
1 38091U 12008A   26168.90840836  .00000050  00000+0  00000+0 0  9996
2 38091   3.5758  69.6919 0009083 272.7662 309.3770  1.00271983 52370
BEIDOU-2 M3 (C11)       
1 38250U 12018A   26168.18868205 -.00000073  00000+0  00000+0 0  9990
2 38250  55.7579 304.8756 0020112 273.8659  85.8906  1.86229716 95942
BEIDOU-2 M4 (C12)       
1 38251U 12018B   26167.58401999 -.00000071  00000+0  00000+0 0  9995
2 38251  55.6586 304.1100 0011291 275.7806  84.0759  1.86229375 95936
BEIDOU-2 M6 (C14)       
1 38775U 12050B   26168.36769198 -.00000052  00000+0  00000+0 0  9996
2 38775  56.5444  62.8883 0013681 357.4403   2.5943  1.86230860 93313
BEIDOU-2 G6 (C02)       
1 38953U 12059A   26168.86460605 -.00000183  00000+0  00000+0 0  9994
2 38953   4.4232  73.5129 0009595 324.1649 263.7310  1.00271808 49911
BEIDOU-3S IGSO-1S (C31) 
1 40549U 15019A   26167.83844597 -.00000175  00000+0  00000+0 0  9990
2 40549  49.1960 295.4654 0039047 191.2267 171.7060  1.00249739 41078
BEIDOU-3S M2S (C58)     
1 40748U 15037A   26167.78639343 -.00000071  00000+0  00000+0 0  9991
2 40748  54.8718 302.0606 0008390 259.2390 100.6546  1.86231981 74119
BEIDOU-3S M1S (C57)     
1 40749U 15037B   26167.45695291 -.00000070  00000+0  00000+0 0  9999
2 40749  54.8681 302.0590 0003448  61.6955 298.3263  1.86254753 74115
BEIDOU-3S IGSO-2S (C56) 
1 40938U 15053A   26168.70526789 -.00000132  00000+0  00000+0 0  9990
2 40938  49.2207 258.7761 0065582 192.0839 164.1337  1.00258762 39350
BEIDOU-2 IGSO-6 (C13)   
1 41434U 16021A   26167.12386227 -.00000150  00000+0  00000+0 0  9994
2 41434  60.2243  38.0497 0057184 231.4868 132.3999  1.00259474 37472
BEIDOU-2 G7 (C03)       
1 41586U 16037A   26168.91863507 -.00000360  00000+0  00000+0 0  9991
2 41586   1.7220  69.3099 0006419 358.0444 279.9860  1.00276184  6895
BEIDOU-3 M1 (C19)       
1 43001U 17069A   26168.13305361 -.00000051  00000+0  00000+0 0  9991
2 43001  56.6923  63.0864 0010443 325.9765  33.9976  1.86230842 58607
BEIDOU-3 M2 (C20)       
1 43002U 17069B   26168.07179984 -.00000051  00000+0  00000+0 0  9995
2 43002  56.6907  63.1251 0009181 351.5106   8.5146  1.86230639 58591
BEIDOU-3 M7 (C27)       
1 43107U 18003A   26167.81356380 -.00000072  00000+0  00000+0 0  9991
2 43107  54.3287 302.3285 0004830  94.0622 265.9813  1.86227988 57341
BEIDOU-3 M8 (C28)       
1 43108U 18003B   26168.29529255 -.00000073  00000+0  00000+0 0  9999
2 43108  54.3208 302.2933 0002557 261.3958  98.5651  1.86230896 57363
BEIDOU-3 M4 (C22)       
1 43207U 18018A   26167.12742264 -.00000050  00000+0  00000+0 0  9998
2 43207  56.6499  63.1838 0007711  19.0983 340.9685  1.86230832 56720
BEIDOU-3 M3 (C21)       
1 43208U 18018B   26167.19390248 -.00000050  00000+0  00000+0 0  9997
2 43208  56.6498  63.1857 0008706 341.2707  18.7354  1.86230672 56725
BEIDOU-3 M9 (C29)       
1 43245U 18029A   26167.41170398 -.00000069  00000+0  00000+0 0  9997
2 43245  54.1945 299.9756 0001005 155.7517 204.2422  1.86227970 55886
BEIDOU-3 M10 (C30)      
1 43246U 18029B   26167.88302684 -.00000070  00000+0  00000+0 0  9996
2 43246  54.1918 299.9862 0003800  39.8570 320.1615  1.86229082 55878
BEIDOU-2 IGSO-7 (C16)   
1 43539U 18057A   26168.91820174 -.00000040  00000+0  00000+0 0  9993
2 43539  55.1940 163.0508 0105157 238.0681 305.4943  1.00251228 29134
BEIDOU-3 M5 (C23)       
1 43581U 18062A   26168.10708597  .00000060  00000+0  00000+0 0  9992
2 43581  54.0849 182.3064 0005640 289.3246  70.6458  1.86228804 53632
BEIDOU-3 M6 (C24)       
1 43582U 18062B   26166.35970745  .00000083  00000+0  00000+0 0  9999
2 43582  54.0850 182.3554 0004918   8.9960 351.0582  1.86227634 53605
BEIDOU-3 M12 (C26)      
1 43602U 18067A   26165.76115788  .00000093  00000+0  00000+0 0  9990
2 43602  54.1799 181.1228 0007735  29.8475 330.2441  1.86227714 53072
BEIDOU-3 M11 (C25)      
1 43603U 18067B   26168.04402986  .00000061  00000+0  00000+0 0  9999
2 43603  54.1777 181.0088 0004471  12.8999 347.1406  1.86227157 53146
BEIDOU-3 M13 (C32)      
1 43622U 18072A   26166.92498194 -.00000051  00000+0  00000+0 0  9997
2 43622  56.6234  62.7019 0007311 328.8537  31.1409  1.86231268 52639
BEIDOU-3 M14 (C33)      
1 43623U 18072B   26167.86433090 -.00000051  00000+0  00000+0 0  9996
2 43623  56.6260  62.6651 0006189 359.6599   0.3805  1.86231280 52645
BEIDOU-3 M16 (C35)      
1 43647U 18078A   26167.48269892 -.00000069  00000+0  00000+0 0  9992
2 43647  54.0905 300.0107 0007202  41.0576 318.9858  1.86232208 52140
BEIDOU-3 M15 (C34)      
1 43648U 18078B   26165.46418844 -.00000068  00000+0  00000+0 0  9991
2 43648  54.0883 300.0818 0004204  57.5981 302.4264  1.86232267 52128
BEIDOU-3 G1 (C59)       
1 43683U 18085A   26168.92851512 -.00000116  00000+0  00000+0 0  9999
2 43683   2.8702  97.3473 0008043 349.7535 313.2915  1.00270303 28065
BEIDOU-3 M17 (C36)      
1 43706U 18093A   26168.42222017  .00000058  00000+0  00000+0 0  9995
2 43706  54.1690 182.2880 0010176 292.0990 142.8043  1.86228332 51544
BEIDOU-3 M18 (C37)      
1 43707U 18093B   26168.17380634  .00000060  00000+0  00000+0 0  9991
2 43707  54.1693 182.2886 0008017 320.4382  39.5343  1.86226651 51532
BEIDOU-3 IGSO-1 (C38)   
1 44204U 19023A   26168.63495080 -.00000222  00000+0  00000+0 0  9992
2 44204  58.6955  37.6444 0025497 225.8169 349.0348  1.00291188  7213
BEIDOU-2 G8 (C01)       
1 44231U 19027A   26168.92548177 -.00000253  00000+0  00000+0 0  9998
2 44231   1.6603  74.4908 0010181 281.7678  27.6271  1.00270524 26086
BEIDOU-3 IGSO-2 (C39)   
1 44337U 19035A   26165.62361995 -.00000071  00000+0  00000+0 0  9997
2 44337  55.2456 158.8849 0039904 216.4592 231.8306  1.00267330 25649
BEIDOU-3 M24 (C46)      
1 44542U 19061A   26168.24244619  .00000060  00000+0  00000+0 0  9995
2 44542  54.3962 182.7262 0008313 358.7038   1.3256  1.86229098 45794
BEIDOU-3 M23 (C45)      
1 44543U 19061B   26167.55603885  .00000067  00000+0  00000+0 0  9990
2 44543  54.3947 182.7174 0005670 338.0060 193.4228  1.86227264 45783
BEIDOU-3 M22 (C44)      
1 44793U 19078A   26167.54530678 -.00000069  00000+0  00000+0 0  9996
2 44793  53.9366 299.8507 0006347  50.5966 309.4493  1.86227179 44634
BEIDOU-3 M21 (C43)      
1 44794U 19078B   26167.14826715 -.00000069  00000+0  00000+0 0  9993
2 44794  53.9102 299.8261 0004221  48.5943 311.4305  1.86227629 44636
BEIDOU-3 M19 (C41)      
1 44864U 19090A   26165.52330763 -.00000053  00000+0  00000+0 0  9991
2 44864  56.5562  62.8792 0017922 297.9457 249.9520  1.86231333 44183
BEIDOU-3 M20 (C42)      
1 44865U 19090B   26166.44845134 -.00000051  00000+0  00000+0 0  9995
2 44865  56.5591  62.8831 0015700 311.8905 225.8558  1.86231059 44185
BEIDOU-3 G2 (C60)       
1 45344U 20017A   26168.91265505 -.00000147  00000+0  00000+0 0  9997
2 45344   2.8658  47.3596 0002019  32.8793 234.5567  1.00271827 23262
BEIDOU-3 G3 (C61)       
1 45807U 20040A   26168.91872174 -.00000360  00000+0  00000+0 0  9990
2 45807   2.4493  67.4422 0002367 335.7723 304.1747  1.00266016 22070
BEIDOU-3 G4 (C62)       
1 56564U 23066A   26168.92452844 -.00000286  00000+0  00000+0 0  9999
2 56564   0.4856 331.7510 0004348 180.5639 226.7214  1.00273446 11409
BEIDOU-3 M28 (C50)      
1 58654U 23207A   26168.29928318 -.00000054  00000+0  00000+0 0  9995
2 58654  55.7528  62.2992 0003262 347.4527  12.5803  1.86229664 16849
BEIDOU-3 M26 (C48)      
1 58655U 23207B   26168.63374080 -.00000055  00000+0  00000+0 0  9996
2 58655  55.7554  62.2745 0003066 321.3615  38.6582  1.86229689 16835
BEIDOU-3 M25 (C47)      
1 61186U 24168B   26168.46726612 -.00000074  00000+0  00000+0 0  9990
2 61186  54.4730 302.2322 0002981 300.4898  65.2743  1.86229836 11793
BEIDOU-3 M27 (C49)      
1 61187U 24168C   26168.73561630 -.00000075  00000+0  00000+0 0  9999
2 61187  54.4680 302.2058 0001549  51.6778 269.0290  1.86229921  9260
